0 COSMOS 1529
1 14618U 84001H   13281.81315786  .00000001  00000-0  11690-3 0  4252
2 14618 074.0061 134.2697 0032187 312.6416 175.0156 12.44803679179080
0 COSMOS 1529
1 14618U 84001H   13284.05127473  .00000034  00000-0  34761-3 0  4266
2 14618 074.0057 131.3202 0032220 309.3730 124.6180 12.44803591179366
0 COSMOS 1529
1 14618U 84001H   13286.07083595  .00000020  00000-0  25155-3 0  4279
2 14618 074.0054 128.6586 0032227 306.4335 174.8023 12.44803878179612
0 COSMOS 1529
1 14618U 84001H   13288.08543024 -.00000016  00000-0 -24630-5 0  4287
2 14618 074.0053 126.0034 0032244 303.4827 202.7479 12.44804203179869
0 COSMOS 1529
1 14618U 84001H   13290.48213362 -.00000030  00000-0 -96261-4 0  4298
2 14618 074.0055 122.8445 0032261 299.9864 143.0175 12.44804399180161
0 COSMOS 1529
1 14618U 84001H   13292.64709683 -.00000027  00000-0 -79553-4 0  4307
2 14618 074.0057 119.9911 0032274 296.8300 124.7976 12.44804269180434
0 COSMOS 1529
1 14618U 84001H   13294.82710319  .00000002  00000-0  12446-3 0  4316
2 14618 074.0058 117.1179 0032281 293.6254 174.0164 12.44804021180705
